NORAD_CAT_ID,OBJECT_NAME,OBJECT_TYPE,EPOCH,MEAN_MOTION,ECCENTRICITY,INCLINATION,RA_OF_ASC_NODE,ARG_OF_PERICENTER,MEAN_ANOMALY,BSTAR,MEAN_MOTION_DOT,MEAN_MOTION_DDOT,TLE_LINE0,TLE_LINE1,TLE_LINE2,SEMIMAJOR_AXIS,PERIOD,APOGEE,PERIGEE,DECAYED
53797.0,STARLINK-4723,PAYLOAD,2022-09-19 18:00:00,15.73136869,0.0001228,53.2157,224.0687,102.4292,327.9434,0.00074723,0.00105286,0.0,0 STARLINK-4723,1 53797U 22111AA  22262.75001157  .00105286  00000-0  74723-3 0  9996,2 53797  53.2157 224.0687 0001228 102.4292 327.9434 15.73136869  1303,6728.075,91.537,350.766,349.11400000000015,0.0
53797.0,STARLINK-4723,PAYLOAD,2022-09-19 22:00:00,15.73189121,0.000127,53.2162,223.2441,105.0688,189.7369,0.00057259,0.00080474,0.0,0 STARLINK-4723,1 53797U 22111AA  22262.91667824  .00080474  00000-0  57259-3 0  9999,2 53797  53.2162 223.2441 0001270 105.0688 189.7369 15.73189121  1325,6727.926,91.534,350.646,348.93699999999984,0.0
53797.0,STARLINK-4723,PAYLOAD,2022-09-20 06:00:00,15.73245158,0.0001139,53.2163,221.5967,95.3367,288.4146,-0.00025429,-0.00036223,0.0,0 STARLINK-4723,1 53797U 22111AA  22263.25001157 -.00036223  00000-0 -25429-3 0  9997,2 53797  53.2163 221.5967 0001139  95.3367 288.4146 15.73245158  1377,6727.766,91.531,350.398,348.865,0.0
53797.0,STARLINK-4723,PAYLOAD,2022-09-20 14:00:01,15.7323723,0.000108,53.2165,219.9456,100.9606,11.7568,-0.00061138,-0.00085688,0.0,0 STARLINK-4723,1 53797U 22111AA  22263.58334491 -.00085688  00000-0 -61138-3 0  9999,2 53797  53.2165 219.9456 0001080 100.9606  11.7568 15.73237230  1307,6727.7890000000025,91.531,350.381,348.927,0.0
53797.0,STARLINK-4723,PAYLOAD,2022-09-20 22:00:01,15.73198236,0.0001291,53.2168,218.2955,107.4983,94.194,6.8273e-05,8.971e-05,0.0,0 STARLINK-4723,1 53797U 22111AA  22263.91668981  .00008971  00000-0  68273-4 0  9996,2 53797  53.2168 218.2955 0001291 107.4983  94.1940 15.73198236  1301,6727.9,91.533,350.634,348.897,0.0
53797.0,STARLINK-4723,PAYLOAD,2022-09-21 08:00:01,15.73141864,0.0001066999999999,53.2164,216.2357,93.9298,308.862,0.00076539,0.00107916,0.0,0 STARLINK-4723,1 53797U 22111AA  22264.33334491  .00107916  00000-0  76539-3 0  9991,2 53797  53.2164 216.2357 0001067  93.9298 308.8620 15.73141864  1541,6728.061,91.537,350.644,349.208,0.0
53797.0,STARLINK-4723,PAYLOAD,2022-09-21 22:00:00,15.73216233,0.0001244,53.2166,213.3474,110.0199,358.375,-0.0001219,-0.00017703,0.0,0 STARLINK-4723,1 53797U 22111AA  22264.91667824 -.00017703  00000-0 -12190-3 0  9993,2 53797  53.2166 213.3474 0001244 110.0199 358.3750 15.73216233  1300,6727.849,91.532,350.551,348.87699999999984,0.0
53797.0,STARLINK-4723,PAYLOAD,2022-09-22 14:00:01,15.73182341,0.000104,53.217,210.0486,110.1409,176.1293,0.00021283,0.00029331,0.0,0 STARLINK-4723,1 53797U 22111AA  22265.58334491  .00029331  00000-0  21283-3 0  9999,2 53797  53.2170 210.0486 0001040 110.1409 176.1293 15.73182341  1301,6727.946,91.534,350.51,349.111,0.0
53797.0,STARLINK-4723,PAYLOAD,2022-09-22 22:00:00,15.7325949,0.0001198,53.2173,208.3988,110.8454,264.3384,-0.00053919,-0.00075804,0.0,0 STARLINK-4723,1 53797U 22111AA  22265.91667824 -.00075804  00000-0 -53919-3 0  9994,2 53797  53.2173 208.3988 0001198 110.8454 264.3384 15.73259490  1796,6727.726,91.53,350.397,348.785,0.0
53797.0,STARLINK-4723,PAYLOAD,2022-09-23 14:00:01,15.73219355,0.0001099,53.2172,205.0999,111.6022,81.4955,-0.00021472,-0.00030669,0.0,0 STARLINK-4723,1 53797U 22111AA  22266.58334491 -.00030669  00000-0 -21472-3 0  9998,2 53797  53.2172 205.0999 0001099 111.6022  81.4955 15.73219355  1306,6727.84,91.532,350.444,348.966,0.0
53797.0,STARLINK-4723,PAYLOAD,2022-09-23 20:00:01,15.73208079,0.000121,53.2173,203.8624,119.7699,50.0928,0.00026142,0.00036239,0.0,0 STARLINK-4723,1 53797U 22111AA  22266.83335648  .00036239  00000-0  26142-3 0  9997,2 53797  53.2173 203.8624 0001210 119.7699  50.0928 15.73208079  1305,6727.871999999999,91.533,350.551,348.923,0.0
53797.0,STARLINK-4723,PAYLOAD,2022-09-24 06:00:00,15.73045049,9.35e-05,53.2174,201.8033,78.3419,292.4555,0.00071774,0.00100652,0.0,0 STARLINK-4723,1 53797U 22111AA  22267.25001157  .00100652  00000-0  71774-3 0  9991,2 53797  53.2174 201.8033 0000935  78.3419 292.4555 15.73045049  2003,6728.337,91.542,350.831,349.5730000000001,0.0
53797.0,STARLINK-4723,PAYLOAD,2022-09-24 14:00:01,15.73076787,9.71e-05,53.2178,200.1522,92.5384,7.1108,4.1397e-05,5.164e-05,0.0,0 STARLINK-4723,1 53797U 22111AA  22267.58335648  .00005164  00000-0  41397-4 0  9993,2 53797  53.2178 200.1522 0000971  92.5384   7.1108 15.73076787  1301,6728.246,91.54,350.765,349.458,0.0
53797.0,STARLINK-4723,PAYLOAD,2022-09-24 22:00:00,15.73075795,0.0001159,53.2181,198.5033,91.1872,97.1793,0.00035107,0.00048674,0.0,0 STARLINK-4723,1 53797U 22111AA  22267.91667824  .00048674  00000-0  35107-3 0  9998,2 53797  53.2181 198.5033 0001159  91.1872  97.1793 15.73075795  1305,6728.249,91.54,350.894,349.335,0.0
53797.0,STARLINK-4723,PAYLOAD,2022-09-25 06:00:00,15.73054874,0.0001394,53.2183,196.858,79.7634,197.4011,0.0032223,0.00475215,0.0,0 STARLINK-4723,1 53797U 22111AA  22268.25001157  .00475215  00000-0  32223-2 0  9997,2 53797  53.2183 196.8580 0001394  79.7634 197.4011 15.73054874  2161,6728.309,91.542,351.112,349.236,0.0
53797.0,STARLINK-4723,PAYLOAD,2022-09-25 14:00:01,15.73811046,0.0001137999999999,53.2182,195.2094,73.4663,292.5316,-0.0025475,-0.00352707,0.0,0 STARLINK-4723,1 53797U 22111AA  22268.58334491 -.00352707  00000-0 -25475-2 0  9996,2 53797  53.2182 195.2094 0001138  73.4663 292.5316 15.73811046  1304,6726.154,91.498,348.784,347.25300000000016,0.0
53797.0,STARLINK-4723,PAYLOAD,2022-09-25 22:00:01,15.73204836,0.0001633,53.2175,193.5613,86.5002,9.1848,-7.083700000000001e-06,-1.615e-05,0.0,0 STARLINK-4723,1 53797U 22111AA  22268.91668981 -.00001615  00000-0 -70837-5 0  9991,2 53797  53.2175 193.5613 0001633  86.5002   9.1848 15.73204836  1301,6727.880999999999,91.533,350.845,348.648,0.0
53797.0,STARLINK-4723,PAYLOAD,2022-09-26 14:00:01,15.73245909,0.000107,53.2181,190.2552,98.971,174.4952,-0.00018803,-0.00026975,0.0,0 STARLINK-4723,1 53797U 22111AA  22269.58334491 -.00026975  00000-0 -18803-3 0  9990,2 53797  53.2181 190.2552 0001070  98.9710 174.4952 15.73245909  1300,6727.764,91.531,350.349,348.909,0.0
53797.0,STARLINK-4723,PAYLOAD,2022-09-26 22:00:00,15.73249177,9.62e-05,53.2183,188.6062,98.2847,264.144,-0.00045352,-0.00063917,0.0,0 STARLINK-4723,1 53797U 22111AA  22269.91667824 -.00063917  00000-0 -45352-3 0  9992,2 53797  53.2183 188.6062 0000962  98.2847 264.1440 15.73249177  1302,6727.755,91.53,350.267,348.973,0.0
53797.0,STARLINK-4723,PAYLOAD,2022-09-27 06:00:00,15.73185595,8.25e-05,53.2179,186.9581,84.2125,7.1908,0.00028124,0.00039009,0.0,0 STARLINK-4723,1 53797U 22111AA  22270.25001157  .00039009  00000-0  28124-3 0  9993,2 53797  53.2179 186.9581 0000825  84.2125   7.1908 15.73185595  2483,6727.936,91.534,350.356,349.246,0.0
53797.0,STARLINK-4723,PAYLOAD,2022-09-27 14:00:01,15.73166727,8.290000000000001e-05,53.2178,185.3067,103.6069,76.7414,0.00059488,0.00083581,0.0,0 STARLINK-4723,1 53797U 22111AA  22270.58334491  .00083581  00000-0  59488-3 0  9990,2 53797  53.2178 185.3067 0000829 103.6069  76.7414 15.73166727  1301,6727.99,91.535,350.413,349.297,0.0
53797.0,STARLINK-4723,PAYLOAD,2022-09-27 22:00:01,15.73243789,9.34e-05,53.2177,183.6583,101.6624,167.6728,0.00034305,0.0004789,0.0,0 STARLINK-4723,1 53797U 22111AA  22270.91668981  .00047890  00000-0  34305-3 0  9995,2 53797  53.2177 183.6583 0000934 101.6624 167.6728 15.73243789  1308,6727.77,91.531,350.264,349.00699999999995,0.0
53797.0,STARLINK-4723,PAYLOAD,2022-09-28 14:00:01,15.73271097,8.66e-05,53.2175,180.3582,108.1838,339.1221,-0.00065121,-0.00091299,0.0,0 STARLINK-4723,1 53797U 22111AA  22271.58334491 -.00091299  00000-0 -65121-3 0  9999,2 53797  53.2175 180.3582 0000866 108.1838 339.1221 15.73271097  1309,6727.691999999999,91.529,350.14,348.975,0.0
53797.0,STARLINK-4723,PAYLOAD,2022-09-28 22:00:00,15.73240999,7.900000000000001e-05,53.2177,178.7096,103.1581,73.1163,-0.0014285,-0.00196812,0.0,0 STARLINK-4723,1 53797U 22111AA  22271.91667824 -.00196812  00000-0 -14285-2 0  9996,2 53797  53.2177 178.7096 0000790 103.1581  73.1163 15.73240999  1305,6727.778,91.531,350.175,349.112,0.0
53797.0,STARLINK-4723,PAYLOAD,2022-09-29 06:00:00,15.73062976,4.54e-05,53.2172,177.0612,90.9841,174.1881,0.00039817,0.00055301,0.0,0 STARLINK-4723,1 53797U 22111AA  22272.25001157  .00055301  00000-0  39817-3 0  9999,2 53797  53.2172 177.0612 0000454  90.9841 174.1881 15.73062976  2795,6728.286,91.541,350.456,349.845,0.0
53797.0,STARLINK-4723,PAYLOAD,2022-09-29 14:00:01,15.73063529,5.41e-05,53.2171,175.4101,122.8206,231.1367,0.00086858,0.00122351,0.0,0 STARLINK-4723,1 53797U 22111AA  22272.58334491  .00122351  00000-0  86858-3 0  9992,2 53797  53.2171 175.4101 0000541 122.8206 231.1367 15.73063529  1300,6728.284000000002,91.541,350.51300000000015,349.785,0.0
53797.0,STARLINK-4723,PAYLOAD,2022-09-29 20:00:01,15.73130783,6.35e-05,53.2172,174.1739,116.6779,213.9516,0.001068,0.0015155,0.0,0 STARLINK-4723,1 53797U 22111AA  22272.83335648  .00151550  00000-0  10680-2 0  9997,2 53797  53.2172 174.1739 0000635 116.6779 213.9516 15.73130783  2889,6728.093000000003,91.537,350.385,349.53,0.0
53797.0,STARLINK-4723,PAYLOAD,2022-09-29 22:00:00,15.73157351,6.43e-05,53.2169,173.7624,105.5869,337.1734,0.00085629,0.00121078,0.0,0 STARLINK-4723,1 53797U 22111AA  22272.91667824  .00121078  00000-0  85629-3 0  9998,2 53797  53.2169 173.7624 0000643 105.5869 337.1734 15.73157351  1306,6728.017,91.536,350.314,349.449,0.0
53797.0,STARLINK-4723,PAYLOAD,2022-09-30 06:00:02,15.73276396,7.46e-05,53.2164,172.1136,94.9283,76.8188,2.2435e-05,2.54e-05,0.0,0 STARLINK-4723,1 53797U 22111AA  22273.25002315  .00002540  00000-0  22435-4 0  9993,2 53797  53.2164 172.1136 0000746  94.9283  76.8188 15.73276396  2950,6727.677,91.529,350.0440000000001,349.04,0.0
